[{"OBJECT_NAME":"FENGYUN 1C DEB","OBJECT_ID":"1999-025BFC","EPOCH":"2026-02-27T03:10:19.335072","MEAN_MOTION":14.78324423,"ECCENTRICITY":0.00893775,"INCLINATION":99.5745,"RA_OF_ASC_NODE":26.5589,"ARG_OF_PERICENTER":231.0332,"MEAN_ANOMALY":128.2886,"EPHEMERIS_TYPE":0,"CLASSIFICATION_TYPE":"U","NORAD_CAT_ID":31058,"ELEMENT_SET_NO":999,"REV_AT_EPOCH":621,"BSTAR":0.0010796284,"MEAN_MOTION_DOT":8.324e-5,"MEAN_MOTION_DDOT":0},{"OBJECT_NAME":"FENGYUN 1C DEB","OBJECT_ID":"1999-025BFG","EPOCH":"2026-03-01T11:19:34.266432","MEAN_MOTION":13.75738961,"ECCENTRICITY":0.01724346,"INCLINATION":99.0029,"RA_OF_ASC_NODE":243.5395,"ARG_OF_PERICENTER":108.8021,"MEAN_ANOMALY":282.8475,"EPHEMERIS_TYPE":0,"CLASSIFICATION_TYPE":"U","NORAD_CAT_ID":31062,"ELEMENT_SET_NO":999,"REV_AT_EPOCH":95316,"BSTAR":0.0002316651,"MEAN_MOTION_DOT":2.1e-6,"MEAN_MOTION_DDOT":0},{"OBJECT_NAME":"FENGYUN 1C DEB","OBJECT_ID":"1999-025BFJ","EPOCH":"2026-03-02T05:51:20.346336","MEAN_MOTION":14.22293091,"ECCENTRICITY":0.02417028,"INCLINATION":98.584,"RA_OF_ASC_NODE":46.8717,"ARG_OF_PERICENTER":130.1379,"MEAN_ANOMALY":248.8687,"EPHEMERIS_TYPE":0,"CLASSIFICATION_TYPE":"U","NORAD_CAT_ID":31064,"ELEMENT_SET_NO":999,"REV_AT_EPOCH":98385,"BSTAR":0.00021217744,"MEAN_MOTION_DOT":5.9e-6,"MEAN_MOTION_DDOT":0},{"OBJECT_NAME":"FENGYUN 1C DEB","OBJECT_ID":"1999-025BFK","EPOCH":"2026-03-01T00:02:13.996032","MEAN_MOTION":14.28564642,"ECCENTRICITY":0.0035959,"INCLINATION":98.4614,"RA_OF_ASC_NODE":81.7444,"ARG_OF_PERICENTER":158.0525,"MEAN_ANOMALY":202.2206,"EPHEMERIS_TYPE":0,"CLASSIFICATION_TYPE":"U","NORAD_CAT_ID":31065,"ELEMENT_SET_NO":999,"REV_AT_EPOCH":65695,"BSTAR":0.00082602,"MEAN_MOTION_DOT":2.044e-5,"MEAN_MOTION_DDOT":0},{"OBJECT_NAME":"FENGYUN 1C DEB","OBJECT_ID":"1999-025BFN","EPOCH":"2026-02-24T17:31:53.078880","MEAN_MOTION":14.09280002,"ECCENTRICITY":0.01637124,"INCLINATION":98.6402,"RA_OF_ASC_NODE":39.8629,"ARG_OF_PERICENTER":268.4698,"MEAN_ANOMALY":89.7715,"EPHEMERIS_TYPE":0,"CLASSIFICATION_TYPE":"U","NORAD_CAT_ID":31068,"ELEMENT_SET_NO":999,"REV_AT_EPOCH":97397,"BSTAR":0.00025179459,"MEAN_MOTION_DOT":4.53e-6,"MEAN_MOTION_DDOT":0},{"OBJECT_NAME":"FENGYUN 1C DEB","OBJECT_ID":"1999-025BFP","EPOCH":"2026-03-02T06:00:56.476224","MEAN_MOTION":14.57799818,"ECCENTRICITY":0.01030489,"INCLINATION":99.1062,"RA_OF_ASC_NODE":233.9339,"ARG_OF_PERICENTER":196.436,"MEAN_ANOMALY":163.3487,"EPHEMERIS_TYPE":0,"CLASSIFICATION_TYPE":"U","NORAD_CAT_ID":31069,"ELEMENT_SET_NO":999,"REV_AT_EPOCH":99844,"BSTAR":0.001261136,"MEAN_MOTION_DOT":6.15e-5,"MEAN_MOTION_DDOT":0},{"OBJECT_NAME":"FENGYUN 1C DEB","OBJECT_ID":"1999-025BFR","EPOCH":"2026-02-26T11:27:06.554016","MEAN_MOTION":14.53461225,"ECCENTRICITY":0.0055534,"INCLINATION":99.0304,"RA_OF_ASC_NODE":146.0766,"ARG_OF_PERICENTER":55.797,"MEAN_ANOMALY":304.847,"EPHEMERIS_TYPE":0,"CLASSIFICATION_TYPE":"U","NORAD_CAT_ID":31071,"ELEMENT_SET_NO":999,"REV_AT_EPOCH":66594,"BSTAR":0.00085952,"MEAN_MOTION_DOT":3.602e-5,"MEAN_MOTION_DDOT":0},{"OBJECT_NAME":"FENGYUN 1C DEB","OBJECT_ID":"1999-025BFS","EPOCH":"2026-03-02T06:30:57.720960","MEAN_MOTION":14.25903833,"ECCENTRICITY":0.02080401,"INCLINATION":99.3321,"RA_OF_ASC_NODE":76.8076,"ARG_OF_PERICENTER":230.4562,"MEAN_ANOMALY":127.8071,"EPHEMERIS_TYPE":0,"CLASSIFICATION_TYPE":"U","NORAD_CAT_ID":31072,"ELEMENT_SET_NO":999,"REV_AT_EPOCH":97776,"BSTAR":0.00057869323,"MEAN_MOTION_DOT":1.675e-5,"MEAN_MOTION_DDOT":0},{"OBJECT_NAME":"FENGYUN 1C DEB","OBJECT_ID":"1999-025BFT","EPOCH":"2026-03-02T09:06:18.552096","MEAN_MOTION":14.25293261,"ECCENTRICITY":0.00445877,"INCLINATION":99.2187,"RA_OF_ASC_NODE":280.0793,"ARG_OF_PERICENTER":57.1393,"MEAN_ANOMALY":303.4065,"EPHEMERIS_TYPE":0,"CLASSIFICATION_TYPE":"U","NORAD_CAT_ID":31073,"ELEMENT_SET_NO":999,"REV_AT_EPOCH":98217,"BSTAR":0.0012121923,"MEAN_MOTION_DOT":2.836e-5,"MEAN_MOTION_DDOT":0},{"OBJECT_NAME":"FENGYUN 1C DEB","OBJECT_ID":"1999-025BFU","EPOCH":"2026-03-03T01:15:35.972352","MEAN_MOTION":14.14940648,"ECCENTRICITY":0.0088695,"INCLINATION":98.9601,"RA_OF_ASC_NODE":342.3269,"ARG_OF_PERICENTER":35.4526,"MEAN_ANOMALY":325.2499,"EPHEMERIS_TYPE":0,"CLASSIFICATION_TYPE":"U","NORAD_CAT_ID":31074,"ELEMENT_SET_NO":999,"REV_AT_EPOCH":96715,"BSTAR":0.0023889,"MEAN_MOTION_DOT":4.755e-5,"MEAN_MOTION_DDOT":0},{"OBJECT_NAME":"FENGYUN 1C DEB","OBJECT_ID":"1999-025BFY","EPOCH":"2026-03-02T10:21:23.257152","MEAN_MOTION":14.22281517,"ECCENTRICITY":0.01149921,"INCLINATION":98.8539,"RA_OF_ASC_NODE":127.2794,"ARG_OF_PERICENTER":279.511,"MEAN_ANOMALY":144.9752,"EPHEMERIS_TYPE":0,"CLASSIFICATION_TYPE":"U","NORAD_CAT_ID":31078,"ELEMENT_SET_NO":999,"REV_AT_EPOCH":98025,"BSTAR":0.00052325887,"MEAN_MOTION_DOT":1.197e-5,"MEAN_MOTION_DDOT":0},{"OBJECT_NAME":"FENGYUN 1C DEB","OBJECT_ID":"1999-025BGB","EPOCH":"2026-03-03T00:18:02.517696","MEAN_MOTION":14.06316214,"ECCENTRICITY":0.0048241,"INCLINATION":98.7665,"RA_OF_ASC_NODE":80.9343,"ARG_OF_PERICENTER":7.4263,"MEAN_ANOMALY":22.5094,"EPHEMERIS_TYPE":0,"CLASSIFICATION_TYPE":"U","NORAD_CAT_ID":31081,"ELEMENT_SET_NO":999,"REV_AT_EPOCH":97589,"BSTAR":-2.3233e-5,"MEAN_MOTION_DOT":-8.1e-7,"MEAN_MOTION_DDOT":0},{"OBJECT_NAME":"FENGYUN 1C DEB","OBJECT_ID":"1999-025BGD","EPOCH":"2026-03-03T02:12:47.035584","MEAN_MOTION":14.64739953,"ECCENTRICITY":0.0029438,"INCLINATION":98.6456,"RA_OF_ASC_NODE":188.4129,"ARG_OF_PERICENTER":62.561,"MEAN_ANOMALY":352.4368,"EPHEMERIS_TYPE":0,"CLASSIFICATION_TYPE":"U","NORAD_CAT_ID":31083,"ELEMENT_SET_NO":999,"REV_AT_EPOCH":98885,"BSTAR":0.0029575,"MEAN_MOTION_DOT":0.00015836,"MEAN_MOTION_DDOT":0},{"OBJECT_NAME":"FENGYUN 1C DEB","OBJECT_ID":"1999-025BGF","EPOCH":"2026-03-03T01:17:30.062688","MEAN_MOTION":14.30370365,"ECCENTRICITY":0.0087439,"INCLINATION":98.9825,"RA_OF_ASC_NODE":270.4594,"ARG_OF_PERICENTER":143.5704,"MEAN_ANOMALY":10.1656,"EPHEMERIS_TYPE":0,"CLASSIFICATION_TYPE":"U","NORAD_CAT_ID":31085,"ELEMENT_SET_NO":999,"REV_AT_EPOCH":98864,"BSTAR":0.00012283,"MEAN_MOTION_DOT":2.86e-6,"MEAN_MOTION_DDOT":0},{"OBJECT_NAME":"FENGYUN 1C DEB","OBJECT_ID":"1999-025BGH","EPOCH":"2026-03-02T12:37:06.370752","MEAN_MOTION":14.61047096,"ECCENTRICITY":0.01719182,"INCLINATION":98.097,"RA_OF_ASC_NODE":85.2289,"ARG_OF_PERICENTER":41.2829,"MEAN_ANOMALY":110.6675,"EPHEMERIS_TYPE":0,"CLASSIFICATION_TYPE":"U","NORAD_CAT_ID":31087,"ELEMENT_SET_NO":999,"REV_AT_EPOCH":99934,"BSTAR":0.00099196447,"MEAN_MOTION_DOT":5.958e-5,"MEAN_MOTION_DDOT":0},{"OBJECT_NAME":"FENGYUN 1C DEB","OBJECT_ID":"1999-025BGJ","EPOCH":"2026-03-03T03:54:03.753216","MEAN_MOTION":14.29414504,"ECCENTRICITY":0.0030555,"INCLINATION":99.4016,"RA_OF_ASC_NODE":133.6469,"ARG_OF_PERICENTER":187.3357,"MEAN_ANOMALY":201.203,"EPHEMERIS_TYPE":0,"CLASSIFICATION_TYPE":"U","NORAD_CAT_ID":31088,"ELEMENT_SET_NO":999,"REV_AT_EPOCH":97698,"BSTAR":0.0016358,"MEAN_MOTION_DOT":4.145e-5,"MEAN_MOTION_DDOT":0}]
