FENGYUN 1C DEB          
1 31058U 99025BFC 26058.13216823  .00008324  00000+0  10796-2 0  9990
2 31058  99.5745  26.5589 0089377 231.0332 128.2886 14.78324423  6213
FENGYUN 1C DEB          
1 31062U 99025BFG 26060.47192438  .00000210  00000+0  23167-3 0  9993
2 31062  99.0029 243.5395 0172434 108.8021 282.8475 13.75738961953165
FENGYUN 1C DEB          
1 31064U 99025BFJ 26061.24398549  .00000590  00000+0  21218-3 0  9998
2 31064  98.5840  46.8717 0241702 130.1379 248.8687 14.22293091983852
FENGYUN 1C DEB          
1 31065U 99025BFK 26060.00155088  .00002044  00000+0  82602-3 0  9991
2 31065  98.4614  81.7444 0035959 158.0525 202.2206 14.28564642656951
FENGYUN 1C DEB          
1 31068U 99025BFN 26055.73047545  .00000453  00000+0  25179-3 0  9994
2 31068  98.6402  39.8629 0163712 268.4698  89.7715 14.09280002973977
FENGYUN 1C DEB          
1 31069U 99025BFP 26061.25065366  .00006150  00000+0  12611-2 0  9996
2 31069  99.1062 233.9339 0103048 196.4360 163.3487 14.57799818998440
FENGYUN 1C DEB          
1 31071U 99025BFR 26057.47715919  .00003602  00000+0  85952-3 0  9992
2 31071  99.0304 146.0766 0055534  55.7970 304.8470 14.53461225665943
FENGYUN 1C DEB          
1 31072U 99025BFS 26061.27150140  .00001675  00000+0  57869-3 0  9999
2 31072  99.3321  76.8076 0208040 230.4562 127.8071 14.25903833977762
FENGYUN 1C DEB          
1 31073U 99025BFT 26061.37938139  .00002836  00000+0  12122-2 0  9995
2 31073  99.2187 280.0793 0044587  57.1393 303.4065 14.25293261982170
FENGYUN 1C DEB          
1 31074U 99025BFU 26062.05249968  .00004755  00000+0  23889-2 0  9991
2 31074  98.9601 342.3269 0088695  35.4526 325.2499 14.14940648967153
FENGYUN 1C DEB          
1 31078U 99025BFY 26061.43151918  .00001197  00000+0  52326-3 0  9999
2 31078  98.8539 127.2794 0114992 279.5110 144.9752 14.22281517980255
FENGYUN 1C DEB          
1 31081U 99025BGB 26062.01252914 -.00000081  00000+0 -23233-4 0  9995
2 31081  98.7665  80.9343 0048241   7.4263  22.5094 14.06316214975892
FENGYUN 1C DEB          
1 31083U 99025BGD 26062.09221106  .00015836  00000+0  29575-2 0  9999
2 31083  98.6456 188.4129 0029438  62.5610 352.4368 14.64739953988854
FENGYUN 1C DEB          
1 31085U 99025BGF 26062.05382017  .00000286  00000+0  12283-3 0  9998
2 31085  98.9825 270.4594 0087439 143.5704  10.1656 14.30370365988642
FENGYUN 1C DEB          
1 31087U 99025BGH 26061.52576818  .00005958  00000+0  99196-3 0  9994
2 31087  98.0970  85.2289 0171918  41.2829 110.6675 14.61047096999349
FENGYUN 1C DEB          
1 31088U 99025BGJ 26062.16254344  .00004145  00000+0  16358-2 0  9998
2 31088  99.4016 133.6469 0030555 187.3357 201.2030 14.29414504976986
